[{"OBJECT_NAME":"QPS-SAR-11 (YAMATSUMI-I)","OBJECT_ID":"2025-125A","EPOCH":"2026-03-09T06:07:28.619904","MEAN_MOTION":15.00627459,"ECCENTRICITY":0.00100447,"INCLINATION":42.0098,"RA_OF_ASC_NODE":22.3823,"ARG_OF_PERICENTER":210.04,"MEAN_ANOMALY":149.985,"EPHEMERIS_TYPE":0,"CLASSIFICATION_TYPE":"U","NORAD_CAT_ID":64340,"ELEMENT_SET_NO":999,"REV_AT_EPOCH":4060,"BSTAR":0.0005738522,"MEAN_MOTION_DOT":7.204e-5,"MEAN_MOTION_DDOT":0},{"OBJECT_NAME":"HINCUBE","OBJECT_ID":"2013-066AF","EPOCH":"2026-03-09T20:37:05.272320","MEAN_MOTION":15.06793635,"ECCENTRICITY":0.00336438,"INCLINATION":97.7872,"RA_OF_ASC_NODE":36.0584,"ARG_OF_PERICENTER":185.5277,"MEAN_ANOMALY":174.5583,"EPHEMERIS_TYPE":0,"CLASSIFICATION_TYPE":"U","NORAD_CAT_ID":39445,"ELEMENT_SET_NO":999,"REV_AT_EPOCH":66456,"BSTAR":0.00067193541,"MEAN_MOTION_DOT":0.00010075,"MEAN_MOTION_DDOT":0}]
